	Name	Phone	Address	City	Country	Email
0	Hillary Benton	1-243-669-7472	144-1225 In Road	Navsari	Togo	rutrum.magna.Cras@eudolor.edu
1	Morgan Y. Little	155-3483	Ap #909-6656 Ac St.	Kitimat	Nauru	pede.sagittis.augue@quis.ca
2	Camden Z. Blair	123-5058	P.O. Box 441, 6183 Ligula St.	Casanova Elvo	Palestine, State of	consectetuer.rhoncus.Nullam@ultrices.org
3	Alexandra E. Saunders	1-637-740-7614	305-496 Morbi Rd.	Biggleswade	Malawi	dui.Fusce@duinecurna.org
4	Hanae P. Walsh	901-2461	7058 Dapibus St.	Dhuy	Qatar	Morbi@tinciduntpedeac.com
5	Jescie Sargent	265-1176	421-5501 Cursus. St.	Tulsa	Holy See (Vatican City State)	non.egestas.a@ullamcorper.co.uk
6	Kessie Morgan	945-0713	Ap #481-6631 Vehicula Rd.	Pedro Aguirre Cerda	Bonaire, Sint Eustatius and Saba	est@vitaeeratVivamus.net
7	Bevis M. Santos	227-9994	P.O. Box 575, 4033 Mi St.	Saint-Vincent	Kuwait	Nunc@Aliquamfringilla.com
8	Flynn Alston	398-8097	Ap #763-5990 Nec, Av.	Tirúa	Romania	Nunc.pulvinar@Phasellusdapibus.edu
9	Charles F. Crawford	791-5111	Ap #841-1623 Vitae Avenue	Hindupur	South Georgia and The South Sandwich Islands	dis.parturient@nectellusNunc.net
10	Cairo Wolfe	1-930-942-2322	9269 Libero Ave	Whitchurch	Lesotho	sociis.natoque@arcuVestibulumante.org
11	Elijah Myers	1-238-336-4864	P.O. Box 677, 2311 Aliquet. Road	Port Harcourt	Kyrgyzstan	tempus.risus@posuereat.net
12	Thane Burch	1-894-978-3696	7438 Amet, Rd.	Algeciras	Anguilla	lobortis.quis.pede@Namligula.edu
13	Katelyn Munoz	220-5054	P.O. Box 432, 9085 Nulla Ave	Requínoa	Congo (Brazzaville)	Vivamus.nisi.Mauris@fermentumarcu.edu
14	Genevieve Holland	992-6968	1768 Magna. Road	Moose Jaw	Uruguay	Maecenas.malesuada@euultrices.co.uk
15	Wesley Z. Sharp	1-960-740-2261	P.O. Box 497, 8354 Habitant St.	Bear	Cayman Islands	et@sedsapien.ca
16	Tatyana H. French	1-120-782-6047	217-9163 Lobortis Road	Salles	Eritrea	Curabitur@magna.com
17	Meredith F. Clayton	425-7583	Ap #929-9420 Vivamus Rd.	Friedberg	Czech Republic	elit.pharetra@dui.co.uk
18	Rajah Carrillo	1-576-789-5730	910-8300 Varius Rd.	Bertiolo	Afghanistan	sapien.gravida.non@cursuset.net
19	Gabriel Richmond	1-387-932-2096	7458 Sapien. St.	Tropea	Cambodia	nunc.nulla.vulputate@anteblanditviverra.co.uk
